{
    "links": {
        "self": "http://www.neowsapp.com/rest/v1/neo/3160726?api_key=iIulBulltgU6a56xZRHN4H3l9WmuAYTsLGpBGhQ2"
    },
    "id": "3160726",
    "neo_reference_id": "3160726",
    "name": "(2003 SY4)",
    "designation": "2003 SY4",
    "nasa_jpl_url": "http://ssd.jpl.nasa.gov/sbdb.cgi?sstr=3160726",
    "absolute_magnitude_h": 26.5,
    "estimated_diameter": {
        "kilometers": {
            "estimated_diameter_min": 0.0133215567,
            "estimated_diameter_max": 0.0297879063
        },
        "meters": {
            "estimated_diameter_min": 13.3215566698,
            "estimated_diameter_max": 29.7879062798
        },
        "miles": {
            "estimated_diameter_min": 0.008277629,
            "estimated_diameter_max": 0.0185093411
        },
        "feet": {
            "estimated_diameter_min": 43.7058959846,
            "estimated_diameter_max": 97.7293544391
        }
    },
    "is_potentially_hazardous_asteroid": false,
    "close_approach_data": [
        {
            "close_approach_date": "2003-09-15",
            "close_approach_date_full": "2003-Sep-15 09:06",
            "epoch_date_close_approach": 1063616760000,
            "relative_velocity": {
                "kilometers_per_second": "10.9071943206",
                "kilometers_per_hour": "39265.899554003",
                "miles_per_hour": "24398.3029756526"
            },
            "miss_distance": {
                "astronomical": "0.0102175977",
                "lunar": "3.9746455053",
                "kilometers": "1528530.852436899",
                "miles": "949785.0295872462"
            },
            "orbiting_body": "Earth"
        },
        {
            "close_approach_date": "2007-06-09",
            "close_approach_date_full": "2007-Jun-09 09:30",
            "epoch_date_close_approach": 1181381400000,
            "relative_velocity": {
                "kilometers_per_second": "21.4632664923",
                "kilometers_per_hour": "77267.7593723174",
                "miles_per_hour": "48011.1808166491"
            },
            "miss_distance": {
                "astronomical": "0.3730256779",
                "lunar": "145.1069887031",
                "kilometers": "55803846.869146073",
                "miles": "34674902.5478908874"
            },
            "orbiting_body": "Earth"
        },
        {
            "close_approach_date": "2077-10-12",
            "close_approach_date_full": "2077-Oct-12 13:44",
            "epoch_date_close_approach": 3401271840000,
            "relative_velocity": {
                "kilometers_per_second": "21.1958455692",
                "kilometers_per_hour": "76305.0440490786",
                "miles_per_hour": "47412.9869537178"
            },
            "miss_distance": {
                "astronomical": "0.3838355959",
                "lunar": "149.3120468051",
                "kilometers": "57420987.576820733",
                "miles": "35679747.1883747954"
            },
            "orbiting_body": "Earth"
        }
    ],
    "orbital_data": {
        "orbit_id": "12",
        "orbit_determination_date": "2017-04-06 09:13:51",
        "first_observation_date": "2003-09-17",
        "last_observation_date": "2003-09-26",
        "data_arc_in_days": 9,
        "observations_used": 66,
        "orbit_uncertainty": "7",
        "minimum_orbit_intersection": ".00505403",
        "jupiter_tisserand_invariant": "3.191",
        "epoch_osculation": "2459000.5",
        "eccentricity": ".6116469496180853",
        "semi_major_axis": "2.475505510725626",
        "inclination": "3.920223668350646",
        "ascending_node_longitude": "353.7326125680458",
        "orbital_period": "1422.637567984277",
        "perihelion_distance": ".9613701163275366",
        "perihelion_argument": "327.6271612113111",
        "aphelion_distance": "3.989640905123716",
        "perihelion_time": "2458561.268663556007",
        "mean_anomaly": "111.1479723847593",
        "mean_motion": ".2530510989598574",
        "equinox": "J2000",
        "orbit_class": {
            "orbit_class_type": "APO",
            "orbit_class_description": "Near-Earth asteroid orbits which cross the Earth’s orbit similar to that of 1862 Apollo",
            "orbit_class_range": "a (semi-major axis) > 1.0 AU; q (perihelion) < 1.017 AU"
        }
    },
    "is_sentry_object": false
}